{"version": 0.6, "generator": "Overpass API 0.7.62.7 375dc00a", "osm3s": {"timestamp_osm_base": "2025-07-03T14:45:15Z", "copyright": "The data included in this document is from www.openstreetmap.org. The data is made available under ODbL."}, "elements": [{"type": "node", "id": 208949374, "lat": 45.4953505, "lon": -73.5798146, "tags": {"name": "Guy-Concordia", "operator": "Soci\u00e9t\u00e9 de transport de Montr\u00e9al", "public_transport": "stop_position", "railway": "stop", "station": "subway", "subway": "yes"}}, {"type": "node", "id": 208949390, "lat": 45.5080372, "lon": -73.5683367, "tags": {"name": "Place-des-Arts", "operator": "Soci\u00e9t\u00e9 de transport de Montr\u00e9al", "public_transport": "stop_position", "railway": "stop", "station": "subway", "subway": "yes"}}, {"type": "node", "id": 208949406, "lat": 45.5109236, "lon": -73.5648225, "tags": {"name": "Saint-Laurent", "operator": "Soci\u00e9t\u00e9 de transport de Montr\u00e9al", "public_transport": "stop_position", "railway": "stop", "station": "subway", "subway": "yes", "wheelchair": "no", "wikidata": "Q1705000", "wikipedia": "en:Saint-Laurent station"}}, {"type": "node", "id": 213329687, "lat": 45.4896787, "lon": -73.5863126, "tags": {"name": "Atwater", "operator": "Soci\u00e9t\u00e9 de transport de Montr\u00e9al", "public_transport": "stop_position", "railway": "stop", "station": "subway", "subway": "yes"}}, {"type": "node", "id": 218356349, "lat": 45.5468903, "lon": -73.5511268, "tags": {"name": "Joliette", "operator": "Soci\u00e9t\u00e9 de transport de Montr\u00e9al", "public_transport": "stop_position", "railway": "stop", "station": "subway", "subway": "yes"}}, {"type": "node", "id": 225689808, "lat": 45.4567578, "lon": -73.5820354, "tags": {"name": "Jolicoeur", "operator": "Soci\u00e9t\u00e9 de transport de Montr\u00e9al", "public_transport": "stop_position", "railway": "stop", "station": "subway", "subway": "yes", "wheelchair": "yes", "wikidata": "Q1702643", "wikipedia": "en:Jolicoeur station"}}, {"type": "node", "id": 264271702, "lat": 45.5542002, "lon": -73.5515006, "tags": {"name": "Pie IX", "operator": "Soci\u00e9t\u00e9 de transport de Montr\u00e9al", "public_transport": "stop_position", "railway": "stop", "station": "subway", "subway": "yes"}}, {"type": "node", "id": 311564466, "lat": 45.4462277, "lon": -73.603611, "tags": {"name": "Angrignon", "operator": "Soci\u00e9t\u00e9 de transport de Montr\u00e9al", "public_transport": "stop_position", "railway": "stop", "station": "subway", "subway": "yes"}}, {"type": "node", "id": 1765620875, "lat": 45.5201103, "lon": -73.6148897, "tags": {"alt_name": "Metro Outremont", "name": "Outremont", "network": "M\u00e9tro", "operator": "Soci\u00e9t\u00e9 de transport de Montr\u00e9al", "public_transport": "station", "railway": "station", "station": "subway", "subway": "yes", "wheelchair": "no", "wikidata": "Q1633093", "wikipedia": "en:Outremont station"}}, {"type": "node", "id": 5360360498, "lat": 45.4950136, "lon": -73.5709494, "tags": {"addr:city": "Montr\u00e9al", "addr:country": "CA", "addr:housenumber": "955", "addr:province": "QC", "addr:street": "Rue Lucien-L'Allier", "name": "Lucien L'Allier", "operator": "Soci\u00e9t\u00e9 de transport de Montr\u00e9al", "phone": "+1 514 786 4636", "public_transport": "station", "railway": "station", "station": "subway", "subway": "yes", "website": "http://www.stm.info/", "wheelchair": "no"}}, {"type": "node", "id": 6600830244, "lat": 45.4966507, "lon": -73.623489, "tags": {"name": "C\u00f4te-des-Neiges", "operator": "Soci\u00e9t\u00e9 de transport de Montr\u00e9al", "public_transport": "station", "railway": "station", "station": "subway", "subway": "yes", "wikidata": "Q1150926", "wikipedia": "en:C\u00f4te-des-Neiges station"}}, {"type": "node", "id": 6600856333, "lat": 45.5151125, "lon": -73.5610756, "tags": {"name": "Berri-UQAM", "operator": "Soci\u00e9t\u00e9 de transport de Montr\u00e9al", "public_transport": "station", "railway": "station", "station": "subway", "subway": "yes", "wheelchair": "limited", "wikidata": "Q827090", "wikipedia": "en:Berri-UQAM station"}}, {"type": "node", "id": 6600874117, "lat": 45.5124469, "lon": -73.5331259, "tags": {"alt_name": "\u00cele-Sainte-H\u00e9l\u00e8ne", "name": "Jean-Drapeau", "network": "STM", "operator": "Soci\u00e9t\u00e9 de transport de Montr\u00e9al", "public_transport": "station", "railway": "station", "station": "subway", "subway": "yes", "wheelchair": "yes", "wikidata": "Q1675164", "wikipedia": "en:Jean-Drapeau station"}}, {"type": "node", "id": 6607411941, "lat": 45.4797551, "lon": -73.6197555, "tags": {"name": "Villa-Maria", "operator": "Soci\u00e9t\u00e9 de transport de Montr\u00e9al", "public_transport": "station", "railway": "station", "start_date": "1981-09-07", "station": "subway", "subway": "yes", "wikidata": "Q1480912", "wikipedia": "en:Villa-Maria station"}}, {"type": "node", "id": 6607411942, "lat": 45.4856705, "lon": -73.6283531, "tags": {"addr:city": "Montr\u00e9al", "addr:country": "CA", "addr:province": "QC", "addr:street": "Chemin Queen Mary", "name": "Snowdon", "operator": "Soci\u00e9t\u00e9 de transport de Montr\u00e9al", "public_transport": "station", "railway": "station", "start_date": "1981-09-07", "station": "subway", "subway": "yes", "wikidata": "Q179391", "wikipedia": "en:Snowdon station"}}, {"type": "node", "id": 6615202527, "lat": 45.5611109, "lon": -73.5473091, "tags": {"name": "Viau", "operator": "Soci\u00e9t\u00e9 de transport de Montr\u00e9al", "public_transport": "station", "railway": "station", "station": "subway", "subway": "yes", "train": "yes", "wheelchair": "yes", "wikidata": "Q1892890", "wikipedia": "en:Viau station"}}, {"type": "node", "id": 6615202528, "lat": 45.4510439, "lon": -73.5932019, "tags": {"addr:city": "Montr\u00e9al", "addr:housenumber": "6678", "addr:postcode": "H4E 2L6", "addr:province": "QC", "addr:street": "Rue Allard", "name": "Monk", "operator": "Soci\u00e9t\u00e9 de transport de Montr\u00e9al", "public_transport": "station", "railway": "station", "station": "subway", "subway": "yes", "train": "yes", "wheelchair": "no", "wikidata": "Q1550415", "wikipedia": "en:Monk station"}}, {"type": "node", "id": 6615202529, "lat": 45.4627596, "lon": -73.5670231, "tags": {"name": "De l'\u00c9glise", "operator": "Soci\u00e9t\u00e9 de transport de Montr\u00e9al", "public_transport": "station", "railway": "station", "station": "subway", "subway": "yes", "wikidata": "Q1180127", "wikipedia": "en:De L'\u00c9glise station"}}, {"type": "node", "id": 6615202530, "lat": 45.4782496, "lon": -73.5693705, "tags": {"name": "Charlevoix", "operator": "Soci\u00e9t\u00e9 de transport de Montr\u00e9al", "public_transport": "station", "railway": "station", "station": "subway", "subway": "yes", "train": "yes", "wheelchair": "no", "wikidata": "Q1066736", "wikipedia": "en:Charlevoix station"}}, {"type": "node", "id": 6615202531, "lat": 45.5417253, "lon": -73.5542369, "tags": {"addr:housenumber": "3100", "addr:street": "Rue Hochelaga", "name": "Pr\u00e9fontaine", "operator": "Soci\u00e9t\u00e9 de transport de Montr\u00e9al", "public_transport": "station", "railway": "station", "station": "subway", "subway": "yes", "train": "yes", "wheelchair": "yes", "wikidata": "Q1827087", "wikipedia": "en:Pr\u00e9fontaine station"}}, {"type": "node", "id": 6831524451, "lat": 45.5040858, "lon": -73.5715689, "tags": {"crossing": "traffic_signals", "crossing:markings": "zebra", "crossing:signals": "yes", "highway": "crossing", "name": "McGill", "operator": "Soci\u00e9t\u00e9 de transport de Montr\u00e9al", "public_transport": "station", "railway": "station", "station": "subway", "subway": "yes", "wheelchair": "no", "wikidata": "Q1285503", "wikipedia": "en:McGill station"}}, {"type": "node", "id": 7041520765, "lat": 45.5768358, "lon": -73.5466995, "tags": {"name": "Cadillac", "operator": "Soci\u00e9t\u00e9 de transport de Montr\u00e9al", "public_transport": "station", "railway": "station", "station": "subway", "subway": "yes", "wheelchair": "no", "wikidata": "Q743385", "wikipedia": "en:Cadillac station"}}, {"type": "node", "id": 7041520766, "lat": 45.596414, "lon": -73.5354362, "tags": {"name": "Honor\u00e9-Beaugrand", "operator": "Soci\u00e9t\u00e9 de transport de Montr\u00e9al", "public_transport": "station", "railway": "station", "station": "subway", "subway": "yes", "wikidata": "Q1627267", "wikipedia": "en:Honor\u00e9-Beaugrand station"}}, {"type": "node", "id": 7052471485, "lat": 45.5597489, "lon": -73.5999622, "tags": {"addr:city": "Montr\u00e9al", "addr:street": "Boulevard Saint-Michel", "name": "Saint-Michel", "operator": "Soci\u00e9t\u00e9 de transport de Montr\u00e9al", "public_transport": "station", "railway": "station", "station": "subway", "subway": "yes", "wikidata": "Q176603", "wikipedia": "en:Saint-Michel station (Montreal Metro)"}}, {"type": "node", "id": 7052471486, "lat": 45.5525993, "lon": -73.6026995, "tags": {"name": "D\u2019Iberville", "operator": "Soci\u00e9t\u00e9 de transport de Montr\u00e9al", "public_transport": "station", "railway": "station", "station": "subway", "subway": "yes", "wheelchair": "yes", "wikidata": "Q1272978", "wikipedia": "en:D'Iberville station"}}, {"type": "node", "id": 7052471487, "lat": 45.5467522, "lon": -73.6078016, "tags": {"name": "Fabre", "operator": "Soci\u00e9t\u00e9 de transport de Montr\u00e9al", "public_transport": "station", "railway": "station", "station": "subway", "subway": "yes", "wheelchair": "no", "wikidata": "Q1390685", "wikipedia": "en:Fabre station"}}, {"type": "node", "id": 7052471488, "lat": 45.5391835, "lon": -73.6134236, "tags": {"name": "Jean-Talon", "operator": "Soci\u00e9t\u00e9 de transport de Montr\u00e9al", "public_transport": "station", "railway": "station", "start_date": "1966-10-14", "station": "subway", "subway": "yes", "wheelchair": "yes", "wikidata": "Q1386163", "wikipedia": "en:Jean-Talon station (Montreal Metro)"}}, {"type": "node", "id": 7052471489, "lat": 45.5352621, "lon": -73.6201056, "tags": {"name": "De Castelnau", "operator": "Soci\u00e9t\u00e9 de transport de Montr\u00e9al", "public_transport": "station", "railway": "station", "station": "subway", "subway": "yes", "wheelchair": "no", "wikidata": "Q971995", "wikipedia": "en:De Castelnau station"}}, {"type": "node", "id": 7052471490, "lat": 45.530416, "lon": -73.6245212, "tags": {"name": "Parc", "operator": "Soci\u00e9t\u00e9 de transport de Montr\u00e9al", "public_transport": "station", "railway": "station", "station": "subway", "subway": "yes", "wikidata": "Q3095529", "wikipedia": "en:Parc station (Montreal)"}}, {"type": "node", "id": 7052471491, "lat": 45.523225, "lon": -73.6237511, "tags": {"name": "Acadie", "network": "M\u00e9tro", "operator": "Soci\u00e9t\u00e9 de transport de Montr\u00e9al", "public_transport": "station", "railway": "station", "station": "subway", "subway": "yes", "wikidata": "Q337414", "wikipedia": "en:Acadie station"}}, {"type": "node", "id": 7052471492, "lat": 45.5101323, "lon": -73.6125273, "tags": {"name": "\u00c9douard-Montpetit", "network": "M\u00e9tro de Montr\u00e9al", "network:en": "Montreal Metro", "network:fr": "M\u00e9tro de Montr\u00e9al", "network:wikidata": "Q392377", "operator": "Soci\u00e9t\u00e9 de transport de Montr\u00e9al", "operator:short": "STM", "operator:wikidata": "Q1817151", "public_transport": "station", "railway": "station", "station": "subway", "subway": "yes", "wheelchair": "yes", "wikidata": "Q273870", "wikipedia": "en:\u00c9douard-Montpetit station"}}, {"type": "node", "id": 7052471493, "lat": 45.503439, "lon": -73.617581, "tags": {"name": "Universit\u00e9-de-Montr\u00e9al", "operator": "Soci\u00e9t\u00e9 de transport de Montr\u00e9al", "public_transport": "station", "railway": "station", "station": "subway", "subway": "yes", "wikidata": "Q256462", "wikipedia": "en:Universit\u00e9-de-Montr\u00e9al station"}}, {"type": "node", "id": 7052605729, "lat": 45.5142942, "lon": -73.6832845, "tags": {"addr:city": "Montr\u00e9al", "addr:housenumber": "1515", "addr:province": "QC", "addr:street": "Boulevard de la C\u00f4te-Vertu", "name": "C\u00f4te-Vertu", "operator": "Soci\u00e9t\u00e9 de transport de Montr\u00e9al", "public_transport": "station", "railway": "station", "station": "subway", "subway": "yes", "wheelchair": "yes", "wikidata": "Q543270", "wikipedia": "en:C\u00f4te-Vertu station"}}, {"type": "node", "id": 7052605730, "lat": 45.5084616, "lon": -73.6728291, "tags": {"name": "Du Coll\u00e8ge", "operator": "Soci\u00e9t\u00e9 de transport de Montr\u00e9al", "public_transport": "station", "railway": "station", "start_date": "1984-01-09", "station": "subway", "subway": "yes", "train": "yes", "wheelchair": "limited", "wikidata": "Q1262350", "wikipedia": "en:Du Coll\u00e8ge station"}}, {"type": "node", "id": 7052605731, "lat": 45.5003824, "lon": -73.6615981, "tags": {"name": "De La Savane", "operator": "Soci\u00e9t\u00e9 de transport de Montr\u00e9al", "public_transport": "station", "railway": "station", "start_date": "1984-01-09", "station": "subway", "subway": "yes", "wheelchair": "no", "wikidata": "Q652128", "wikipedia": "en:De La Savane station"}}, {"type": "node", "id": 7052605732, "lat": 45.4949329, "lon": -73.6529072, "tags": {"name": "Namur", "operator": "Soci\u00e9t\u00e9 de transport de Montr\u00e9al", "public_transport": "station", "railway": "station", "start_date": "1984-01-09", "station": "subway", "subway": "yes", "wheelchair": "no", "wikidata": "Q1892936", "wikipedia": "en:Namur station (Montreal Metro)"}}, {"type": "node", "id": 7052605733, "lat": 45.4943703, "lon": -73.6379309, "tags": {"name": "Plamondon", "operator": "Soci\u00e9t\u00e9 de transport de Montr\u00e9al", "public_transport": "station", "railway": "station", "start_date": "1982-06-29", "station": "subway", "subway": "yes", "toilets:wheelchair": "no", "train": "yes", "wheelchair": "no", "wikidata": "Q980309", "wikipedia": "en:Plamondon station"}}, {"type": "node", "id": 7052605734, "lat": 45.4923747, "lon": -73.6328602, "tags": {"name": "C\u00f4te-Sainte-Catherine", "network": "STM", "operator": "Soci\u00e9t\u00e9 de transport de Montr\u00e9al", "public_transport": "station", "railway": "station", "start_date": "1982-01-04", "station": "subway", "subway": "yes", "wikidata": "Q1150920", "wikipedia": "en:C\u00f4te-Sainte-Catherine station"}}, {"type": "node", "id": 7052605735, "lat": 45.4738941, "lon": -73.6038307, "tags": {"name": "Vend\u00f4me", "operator": "Soci\u00e9t\u00e9 de transport de Montr\u00e9al", "public_transport": "station", "railway": "station", "start_date": "1981-09-07", "station": "subway", "subway": "yes", "wheelchair": "yes", "wikidata": "Q1593502", "wikipedia": "en:Vend\u00f4me station"}}, {"type": "node", "id": 7052605736, "lat": 45.4771794, "lon": -73.586572, "tags": {"name": "Place Saint-Henri", "operator": "Soci\u00e9t\u00e9 de transport de Montr\u00e9al", "public_transport": "station", "railway": "station", "start_date": "1980-04-28", "station": "subway", "subway": "yes", "wheelchair": "no", "wikidata": "Q1632321", "wikipedia": "en:Place-Saint-Henri station"}}, {"type": "node", "id": 7052605737, "lat": 45.488951, "lon": -73.5764602, "tags": {"addr:city": "Montr\u00e9al", "addr:housenumber": "2040", "addr:province": "QC", "addr:street": "Rue Saint-Antoine Ouest", "name": "Georges-Vanier", "operator": "Soci\u00e9t\u00e9 de transport de Montr\u00e9al", "public_transport": "station", "railway": "station", "start_date": "1980-04-28", "station": "subway", "subway": "yes", "wheelchair": "no", "wikidata": "Q1508769", "wikipedia": "en:Georges-Vanier station"}}, {"type": "node", "id": 7052605738, "lat": 45.4981853, "lon": -73.5669583, "tags": {"addr:city": "Montreal", "addr:country": "CA", "addr:housenumber": "1166", "addr:province": "QC", "addr:street": "Rue de La Gaucheti\u00e8re Ouest", "name": "Bonaventure", "note": "Elevator but not wheelchair accessible", "operator": "Soci\u00e9t\u00e9 de transport de Montr\u00e9al", "phone": "+1 514 786 4636", "public_transport": "station", "railway": "station", "start_date": "1967-02-13", "station": "subway", "subway": "yes", "website": "http://www.stm.info/", "wheelchair": "no", "wikidata": "Q525279", "wikipedia": "en:Bonaventure station"}}, {"type": "node", "id": 7052605739, "lat": 45.50209, "lon": -73.5631107, "tags": {"name": "Square-Victoria-OACI", "operator": "Soci\u00e9t\u00e9 de transport de Montr\u00e9al", "public_transport": "station", "railway": "station", "start_date": "1967-02-06", "station": "subway", "subway": "yes", "wheelchair": "no", "wikidata": "Q1463336", "wikipedia": "en:Square-Victoria-OACI station"}}, {"type": "node", "id": 7052605740, "lat": 45.5060856, "lon": -73.559605, "tags": {"name": "Place d\u2019Armes", "name:ko": "\ub2e4\ub984\uad11\uc7a5", "operator": "Soci\u00e9t\u00e9 de transport de Montr\u00e9al", "public_transport": "station", "railway": "station", "start_date": "1966-10-14", "station": "subway", "subway": "yes", "wheelchair": "no", "wikidata": "Q1495111", "wikipedia": "en:Place-d'Armes station"}}, {"type": "node", "id": 7052605741, "lat": 45.5101439, "lon": -73.556487, "tags": {"name": "Champ-de-Mars", "operator": "Soci\u00e9t\u00e9 de transport de Montr\u00e9al", "public_transport": "station", "railway": "station", "start_date": "1966-10-14", "station": "subway", "subway": "yes", "wheelchair": "yes", "wikidata": "Q1061011", "wikipedia": "en:Champ-de-Mars station (Montreal Metro)"}}, {"type": "node", "id": 7052605742, "lat": 45.5187201, "lon": -73.5680527, "tags": {"name": "Sherbrooke", "operator": "Soci\u00e9t\u00e9 de transport de Montr\u00e9al", "public_transport": "station", "railway": "station", "start_date": "1966-10-14", "station": "subway", "subway": "yes", "wheelchair": "no", "wikidata": "Q932594", "wikipedia": "en:Sherbrooke station"}}, {"type": "node", "id": 7052605743, "lat": 45.5245985, "lon": -73.5816468, "tags": {"name": "Mont-Royal", "operator": "Soci\u00e9t\u00e9 de transport de Montr\u00e9al", "public_transport": "station", "railway": "station", "start_date": "1966-10-14", "station": "subway", "subway": "yes", "wheelchair": "no", "wikidata": "Q1632640", "wikipedia": "en:Mont-Royal station (Montreal Metro)"}}, {"type": "node", "id": 7052605744, "lat": 45.5280804, "lon": -73.5883784, "tags": {"name": "Laurier", "operator": "Soci\u00e9t\u00e9 de transport de Montr\u00e9al", "public_transport": "station", "railway": "station", "start_date": "1966-10-14", "station": "subway", "subway": "yes", "train": "yes", "wheelchair": "no", "wikidata": "Q1632291", "wikipedia": "en:Laurier station (Montreal Metro)"}}, {"type": "node", "id": 7052605745, "lat": 45.5314962, "lon": -73.5973383, "tags": {"elevator": "yes", "name": "Rosemont", "operator": "Soci\u00e9t\u00e9 de transport de Montr\u00e9al", "platforms": "2", "public_transport": "station", "railway": "station", "start_date": "1966-10-14", "station": "subway", "subway": "yes", "train": "yes", "wheelchair": "yes", "wikidata": "Q1633672", "wikipedia": "en:Rosemont station (Montreal Metro)"}}, {"type": "node", "id": 7052605746, "lat": 45.5351198, "lon": -73.6046246, "tags": {"name": "Beaubien", "operator": "Soci\u00e9t\u00e9 de transport de Montr\u00e9al", "public_transport": "station", "railway": "station", "start_date": "1966-10-14", "station": "subway", "subway": "yes", "wikidata": "Q813338", "wikipedia": "en:Beaubien station"}}, {"type": "node", "id": 7052605747, "lat": 45.5432233, "lon": -73.6286029, "tags": {"name": "Jarry", "operator": "Soci\u00e9t\u00e9 de transport de Montr\u00e9al", "public_transport": "station", "railway": "station", "start_date": "1966-10-14", "station": "subway", "subway": "yes", "wheelchair": "no", "wikidata": "Q1634277", "wikipedia": "en:Jarry station"}}, {"type": "node", "id": 7052605748, "lat": 45.5461436, "lon": -73.6388375, "tags": {"name": "Cr\u00e9mazie", "operator": "Soci\u00e9t\u00e9 de transport de Montr\u00e9al", "public_transport": "station", "railway": "station", "start_date": "1966-10-14", "station": "subway", "subway": "yes", "train": "yes", "wikidata": "Q1142496", "wikipedia": "en:Cr\u00e9mazie station"}}, {"type": "node", "id": 7052605749, "lat": 45.5511003, "lon": -73.6565058, "tags": {"name": "Sauv\u00e9", "operator": "Soci\u00e9t\u00e9 de transport de Montr\u00e9al", "public_transport": "station", "railway": "station", "station": "subway", "subway": "yes", "wikidata": "Q1634285", "wikipedia": "en:Sauv\u00e9 station (Montreal Metro)"}}, {"type": "node", "id": 7052605750, "lat": 45.5545124, "lon": -73.6682516, "tags": {"name": "Henri-Bourassa", "operator": "Soci\u00e9t\u00e9 de transport de Montr\u00e9al", "public_transport": "station", "railway": "station", "start_date": "1966-10-14", "station": "subway", "subway": "yes", "wheelchair": "limited", "wikidata": "Q1605659", "wikipedia": "en:Henri-Bourassa station"}}, {"type": "node", "id": 7052949183, "lat": 45.5896475, "lon": -73.5397875, "tags": {"name": "Radisson", "operator": "Soci\u00e9t\u00e9 de transport de Montr\u00e9al", "public_transport": "station", "railway": "station", "station": "subway", "subway": "yes", "wheelchair": "no", "wikidata": "Q1827231", "wikipedia": "en:Radisson station"}}, {"type": "node", "id": 7052949184, "lat": 45.5827257, "lon": -73.5431577, "tags": {"name": "Langelier", "operator": "Soci\u00e9t\u00e9 de transport de Montr\u00e9al", "public_transport": "station", "railway": "station", "station": "subway", "subway": "yes", "train": "yes", "wikidata": "Q1705135", "wikipedia": "en:Langelier station"}}, {"type": "node", "id": 7052992085, "lat": 45.5693911, "lon": -73.5467318, "tags": {"internet_access": "no", "name": "Assomption", "network": "STM", "operator": "Soci\u00e9t\u00e9 de transport de Montr\u00e9al", "public_transport": "station", "railway": "station", "station": "subway", "subway": "yes", "wheelchair": "no", "wikidata": "Q538758", "wikipedia": "en:Assomption station"}}, {"type": "node", "id": 7052992086, "lat": 45.5541959, "lon": -73.5515329, "tags": {"name": "Pie IX", "operator": "Soci\u00e9t\u00e9 de transport de Montr\u00e9al", "public_transport": "station", "railway": "station", "station": "subway", "subway": "yes", "train": "yes", "wheelchair": "yes", "wikidata": "Q1892913", "wikipedia": "en:Pie-IX station"}}, {"type": "node", "id": 7052992087, "lat": 45.5469325, "lon": -73.5510099, "tags": {"defibrillator:location": "Apr\u00e8s le portique de paiement", "name": "Joliette", "network": "M\u00e9tro de Montr\u00e9al", "network:en": "Montreal Metro", "network:fr": "M\u00e9tro de Montr\u00e9al", "network:wikidata": "Q392377", "operator": "Soci\u00e9t\u00e9 de transport de Montr\u00e9al", "operator:short": "STM", "operator:wikidata": "Q1817151", "public_transport": "station", "railway": "station", "station": "subway", "subway": "yes", "wheelchair": "no", "wikidata": "Q1249429", "wikipedia": "en:Joliette station (Montreal Metro)"}}, {"type": "node", "id": 7052992088, "lat": 45.5331536, "lon": -73.5522155, "tags": {"addr:city": "Montr\u00e9al", "addr:housenumber": "2570", "addr:province": "QC", "addr:street": "Rue Ontario Est", "check_date:wheelchair": "2024-01-06", "name": "Frontenac", "network": "STM", "operator": "Soci\u00e9t\u00e9 de transport de Montr\u00e9al", "public_transport": "station", "railway": "station", "station": "subway", "subway": "yes", "wheelchair": "no", "wikidata": "Q183022", "wikipedia": "en:Frontenac station"}}, {"type": "node", "id": 7052992089, "lat": 45.5237396, "lon": -73.5521686, "tags": {"name": "Papineau", "operator": "Soci\u00e9t\u00e9 de transport de Montr\u00e9al", "public_transport": "station", "railway": "station", "station": "subway", "subway": "yes", "wheelchair": "no", "wikidata": "Q1892925", "wikipedia": "en:Papineau station"}}, {"type": "node", "id": 7052992090, "lat": 45.5195498, "lon": -73.5571716, "tags": {"name": "Beaudry", "operator": "Soci\u00e9t\u00e9 de transport de Montr\u00e9al", "public_transport": "station", "railway": "station", "station": "subway", "subway": "yes", "wheelchair": "no", "wikidata": "Q813363", "wikipedia": "en:Beaudry station"}}, {"type": "node", "id": 7052992091, "lat": 45.5108831, "lon": -73.5648092, "tags": {"name": "Saint-Laurent", "network": "M\u00e9tro de Montr\u00e9al", "network:en": "Montreal Metro", "network:fr": "M\u00e9tro de Montr\u00e9al", "network:wikidata": "Q392377", "operator": "Soci\u00e9t\u00e9 de transport de Montr\u00e9al", "operator:short": "STM", "operator:wikidata": "Q1817151", "public_transport": "station", "railway": "station", "station": "subway", "subway": "yes", "wheelchair": "no", "wikidata": "Q1705000", "wikipedia": "en:Saint-Laurent station"}}, {"type": "node", "id": 7052992092, "lat": 45.5080307, "lon": -73.5683162, "tags": {"name": "Place-des-Arts", "operator": "Soci\u00e9t\u00e9 de transport de Montr\u00e9al", "public_transport": "station", "railway": "station", "station": "subway", "subway": "yes", "wheelchair": "no", "wikidata": "Q1889985", "wikipedia": "en:Place-des-Arts station"}}, {"type": "node", "id": 7052992094, "lat": 45.5006095, "lon": -73.5750881, "tags": {"name": "Peel", "operator": "Soci\u00e9t\u00e9 de transport de Montr\u00e9al", "public_transport": "station", "railway": "station", "station": "subway", "subway": "yes", "wheelchair": "no", "wikidata": "Q1616425", "wikipedia": "en:Peel station (Montreal Metro)"}}, {"type": "node", "id": 7052992095, "lat": 45.4953736, "lon": -73.5798383, "tags": {"name": "Guy-Concordia", "operator": "Soci\u00e9t\u00e9 de transport de Montr\u00e9al", "public_transport": "station", "railway": "station", "station": "subway", "subway": "yes", "train": "yes", "wheelchair": "no", "wikidata": "Q183268", "wikipedia": "en:Guy-Concordia station"}}, {"type": "node", "id": 7052992096, "lat": 45.4897865, "lon": -73.5863426, "tags": {"name": "Atwater", "operator": "Soci\u00e9t\u00e9 de transport de Montr\u00e9al", "public_transport": "station", "railway": "station", "station": "subway", "subway": "yes", "wheelchair": "no", "wikidata": "Q138609", "wikipedia": "fr:Atwater (m\u00e9tro de Montr\u00e9al)"}}, {"type": "node", "id": 7052992097, "lat": 45.4708146, "lon": -73.5661308, "tags": {"name": "LaSalle", "operator": "Soci\u00e9t\u00e9 de transport de Montr\u00e9al", "public_transport": "station", "railway": "station", "station": "subway", "subway": "yes", "wheelchair": "no", "wikidata": "Q1798572", "wikipedia": "en:LaSalle station (Montreal Metro)"}}, {"type": "node", "id": 7052992098, "lat": 45.4592869, "lon": -73.5720103, "tags": {"name": "Verdun", "operator": "Soci\u00e9t\u00e9 de transport de Montr\u00e9al", "public_transport": "station", "railway": "station", "station": "subway", "subway": "yes", "toilets:wheelchair": "no", "wheelchair": "no", "wikidata": "Q586219", "wikipedia": "en:Verdun station"}}, {"type": "node", "id": 7052992099, "lat": 45.45686, "lon": -73.5819981, "tags": {"addr:city": "Montr\u00e9al", "addr:housenumber": "6200", "addr:postcode": "H4E 4J6", "addr:province": "QC", "addr:street": "Rue Drake", "name": "Jolicoeur", "operator": "Soci\u00e9t\u00e9 de transport de Montr\u00e9al", "public_transport": "station", "railway": "station", "station": "subway", "subway": "yes", "wheelchair": "no", "wikidata": "Q1702643", "wikipedia": "en:Jolicoeur station"}}, {"type": "node", "id": 7052992100, "lat": 45.4461825, "lon": -73.6036506, "tags": {"addr:city": "Montr\u00e9al", "addr:housenumber": "3500", "addr:province": "QC", "addr:street": "Boulevard des Trinitaires", "name": "Angrignon", "operator": "Soci\u00e9t\u00e9 de transport de Montr\u00e9al", "public_transport": "station", "railway": "station", "station": "subway", "subway": "yes", "wheelchair": "yes", "wikidata": "Q543509", "wikipedia": "en:Angrignon station"}}, {"type": "node", "id": 7164242333, "lat": 45.4827728, "lon": -73.5798271, "tags": {"name": "Lionel-Groulx", "name:fr": "Lionel-Groulx", "operator": "Soci\u00e9t\u00e9 de transport de Montr\u00e9al", "public_transport": "station", "railway": "station", "start_date": "1978-09-03", "station": "subway", "subway": "yes", "wheelchair": "yes", "wikidata": "Q1704947", "wikipedia": "fr:Lionel-Groulx (m\u00e9tro de Montr\u00e9al)"}}, {"type": "node", "id": 7350710750, "lat": 45.47033, "lon": -73.5388789, "tags": {"name": "\u00cele-des-Soeurs", "network": "REM", "network:wikidata": "Q19582331", "public_transport": "station", "railway": "station", "station": "subway", "subway": "yes", "wheelchair": "yes", "wikidata": "Q30668383"}}, {"type": "node", "id": 8205968569, "lat": 45.4999265, "lon": -73.5666874, "tags": {"air_conditioning": "yes", "name": "Gare Centrale", "name:es": "Estaci\u00f3n Central", "network": "REM", "network:wikidata": "Q19582331", "public_transport": "station", "railway": "station", "station": "subway", "subway": "yes"}}, {"type": "node", "id": 10743733522, "lat": 45.4871309, "lon": -73.6278518}, {"type": "node", "id": 10743733523, "lat": 45.4868807, "lon": -73.6279501}, {"type": "node", "id": 10743733524, "lat": 45.4868183, "lon": -73.6279745}, {"type": "node", "id": 10743733525, "lat": 45.4866039, "lon": -73.6280503}, {"type": "node", "id": 10743733526, "lat": 45.4865433, "lon": -73.6280765}, {"type": "node", "id": 10743733527, "lat": 45.4863299, "lon": -73.6281563}, {"type": "node", "id": 10743733528, "lat": 45.4862678, "lon": -73.6281851}, {"type": "node", "id": 10743733529, "lat": 45.4854634, "lon": -73.6284862}, {"type": "node", "id": 10743733530, "lat": 45.4854282, "lon": -73.628401}, {"type": "node", "id": 10743733531, "lat": 45.4854522, "lon": -73.6282515}, {"type": "node", "id": 10743733532, "lat": 45.4854371, "lon": -73.6282421}, {"type": "node", "id": 10743733533, "lat": 45.4854529, "lon": -73.6281126}, {"type": "node", "id": 10743733534, "lat": 45.4855401, "lon": -73.6283071}, {"type": "node", "id": 10743733535, "lat": 45.4855138, "lon": -73.6283212}, {"type": "node", "id": 10743733536, "lat": 45.4855321, "lon": -73.6283608}, {"type": "node", "id": 10743733537, "lat": 45.485478, "lon": -73.6283796}, {"type": "node", "id": 10743733538, "lat": 45.4854799, "lon": -73.6283883}, {"type": "node", "id": 10743733539, "lat": 45.4862495, "lon": -73.6280952}, {"type": "node", "id": 10743733540, "lat": 45.4863106, "lon": -73.6280664}, {"type": "node", "id": 10743733541, "lat": 45.4865217, "lon": -73.6279906}, {"type": "node", "id": 10743733542, "lat": 45.4865828, "lon": -73.6279605}, {"type": "node", "id": 10743733543, "lat": 45.4867967, "lon": -73.6278847}, {"type": "node", "id": 10743733544, "lat": 45.4868597, "lon": -73.6278532}, {"type": "node", "id": 10743733545, "lat": 45.4871164, "lon": -73.62776}, {"type": "node", "id": 10743733547, "lat": 45.4862227, "lon": -73.6279611}, {"type": "node", "id": 10743733548, "lat": 45.486288, "lon": -73.627931}, {"type": "node", "id": 10743733549, "lat": 45.4864977, "lon": -73.6278491}, {"type": "node", "id": 10743733550, "lat": 45.4865574, "lon": -73.6278243}, {"type": "node", "id": 10743733551, "lat": 45.4867722, "lon": -73.6277479}, {"type": "node", "id": 10743733552, "lat": 45.4868348, "lon": -73.6277177}, {"type": "node", "id": 10743733553, "lat": 45.4870886, "lon": -73.6276252}, {"type": "node", "id": 10743733554, "lat": 45.487154, "lon": -73.6276004}, {"type": "node", "id": 10743733557, "lat": 45.4862871, "lon": -73.6283098}, {"type": "node", "id": 10743733558, "lat": 45.4863534, "lon": -73.6282857}, {"type": "node", "id": 10743733559, "lat": 45.4865626, "lon": -73.6282072}, {"type": "node", "id": 10743733560, "lat": 45.486627, "lon": -73.6281784}, {"type": "node", "id": 10743733561, "lat": 45.4868381, "lon": -73.628104}, {"type": "node", "id": 10743733562, "lat": 45.486901, "lon": -73.6280731}, {"type": "node", "id": 10743733563, "lat": 45.487153, "lon": -73.6279833}, {"type": "node", "id": 10743733564, "lat": 45.4872179, "lon": -73.6279484}, {"type": "node", "id": 10905645589, "lat": 45.4462029, "lon": -73.6035778, "tags": {"name": "Angrignon", "operator": "Soci\u00e9t\u00e9 de Transport de Montr\u00e9al", "public_transport": "stop_position", "railway": "stop", "station": "subway", "subway": "yes"}}, {"type": "node", "id": 10934212937, "lat": 45.45675, "lon": -73.5819839, "tags": {"name": "Jolicoeur", "network": "Soci\u00e9t\u00e9 de Transport de Montr\u00e9al", "public_transport": "stop_position", "railway": "stop", "station": "subway", "subway": "yes", "wheelchair": "yes"}}, {"type": "node", "id": 10938614688, "lat": 45.4594567, "lon": -73.5731629, "tags": {"name": "Verdun", "operator": "Soci\u00e9t\u00e9 de transport de Montr\u00e9al", "public_transport": "stop_position", "railway": "stop", "station": "subway", "subway": "yes"}}, {"type": "node", "id": 10938614689, "lat": 45.4594242, "lon": -73.5731663, "tags": {"name": "Verdun", "operator": "Soci\u00e9t\u00e9 de transport de Montr\u00e9al", "public_transport": "stop_position", "railway": "stop", "station": "subway", "subway": "yes"}}, {"type": "node", "id": 11483331210, "lat": 45.5195426, "lon": -73.5571619, "tags": {"name": "Beaudry", "operator": "Soci\u00e9t\u00e9 de transport de Montr\u00e9al", "public_transport": "stop_position", "railway": "stop", "station": "subway", "subway": "yes"}}, {"type": "way", "id": 1155282212, "nodes": [10743733564, 10743733554, 10743733553, 10743733545, 10743733544, 10743733552, 10743733551, 10743733543, 10743733542, 10743733550, 10743733549, 10743733541, 10743733540, 10743733548, 10743733547, 10743733539, 10743733538, 10743733537, 10743733536, 10743733535, 10743733534, 10743733533, 10743733532, 10743733531, 10743733530, 10743733529, 10743733528, 10743733557, 10743733558, 10743733527, 10743733526, 10743733559, 10743733560, 10743733525, 10743733524, 10743733561, 10743733562, 10743733523, 10743733522, 10743733563, 10743733564], "tags": {"area": "yes", "layer": "-2", "location": "underground", "network": "STM", "public_transport": "platform", "railway": "platform", "ref": "Snowdon", "station": "subway", "subway": "yes"}}]}